OBJECT_NAME,OBJECT_ID,EPOCH,MEAN_MOTION,ECCENTRICITY,INCLINATION,RA_OF_ASC_NODE,ARG_OF_PERICENTER,MEAN_ANOMALY,EPHEMERIS_TYPE,CLASSIFICATION_TYPE,NORAD_CAT_ID,ELEMENT_SET_NO,REV_AT_EPOCH,BSTAR,MEAN_MOTION_DOT,MEAN_MOTION_DDOT
STARLINK-30519,2023-151X,2026-06-01T06:28:06.292128,15.27585904,.00022797,43.0027,238.8520,263.8795,96.1797,0,U,57985,999,14831,-.3283249E-5,-.353E-5,0
YAOGAN-39 03A,2023-152A,2026-06-03T19:44:36.221280,15.23286531,.00039649,35.0019,356.5634,33.4853,326.6112,0,U,57986,999,14840,.29904797E-3,.7236E-4,0
YAOGAN-39 03B,2023-152C,2026-06-04T01:03:33.009120,15.17868712,.00184224,34.9913,18.1421,112.2987,247.9681,0,U,57988,999,14819,.35573589E-3,.7378E-4,0
YAOGAN-39 03C,2023-152E,2026-06-04T00:57:50.548032,15.17894728,.00097817,34.9914,18.0823,16.9963,343.1076,0,U,57990,999,14816,.31429864E-3,.6498E-4,0
STARLINK-30537,2023-153A,2026-06-01T18:03:17.152704,15.27574392,.00023851,43.0074,312.2353,274.5121,85.5458,0,U,57991,999,14765,.18708559E-4,.252E-5,0
STARLINK-30534,2023-153B,2026-06-01T11:26:17.811456,15.27584134,.00020655,43.0047,313.6008,265.7803,94.2813,0,U,57992,999,14761,.11367971E-3,.2867E-4,0
STARLINK-30536,2023-153C,2026-06-01T18:08:49.816032,15.27576390,.00022779,43.0073,312.2614,252.4815,107.5788,0,U,57993,999,14775,.37957961E-4,.782E-5,0
STARLINK-30538,2023-153D,2026-06-01T18:19:56.824032,15.27573680,.00006626,43.0022,312.3162,286.2743,73.8036,0,U,57994,999,14765,.28491383E-4,.522E-5,0
STARLINK-30517,2023-153E,2026-06-01T18:40:17.168736,15.27577597,.00024742,43.0052,312.4180,255.7581,104.2996,0,U,57995,999,14775,.1403465E-3,.3601E-4,0
STARLINK-30523,2023-153G,2026-06-03T12:36:30.877632,15.27668870,.00028847,43.0087,302.3215,260.2308,99.8218,0,U,57997,999,14802,.4897391E-3,.13276E-3,0
STARLINK-30531,2023-153H,2026-06-01T17:59:34.796256,15.27574978,.0002175,43.0069,312.2107,261.9309,98.1296,0,U,57998,999,14775,.7733508E-5,-.5E-6,0
STARLINK-30552,2023-153J,2026-06-01T22:05:15.025920,15.27579087,.00038121,43.0057,311.7751,289.0077,71.0361,0,U,57999,999,14777,.1588375E-3,.4111E-4,0
STARLINK-30545,2023-153K,2026-06-01T17:28:08.114880,15.27573061,.00012121,43.0054,312.0485,269.2090,90.8623,0,U,58000,999,14775,.10686585E-3,.2679E-4,0
STARLINK-30535,2023-153L,2026-06-01T11:17:02.535072,15.27585286,.00022515,43.0045,313.5492,265.7519,94.3076,0,U,58001,999,14771,.1103705E-3,.2776E-4,0
STARLINK-30540,2023-153M,2026-06-01T17:48:28.689408,15.27570510,.00019428,43.0053,312.1370,264.3797,95.6833,0,U,58002,999,14765,.10304782E-3,.2573E-4,0
STARLINK-30539,2023-153P,2026-06-03T18:23:37.887072,15.27580749,.00014601,43.0037,300.6862,260.2653,99.8034,0,U,58004,999,14805,.69483614E-4,.165E-4,0
STARLINK-30530,2023-153Q,2026-06-01T21:04:11.850816,15.27566530,.00019812,43.0091,311.4451,234.1755,125.8913,0,U,58005,999,14777,.60508238E-4,.1402E-4,0
STARLINK-30526,2023-153R,2026-05-31T17:46:24.479040,15.30094685,.00037297,43.0041,292.3621,320.0627,39.9951,0,U,58006,999,14789,.13381221E-2,.39731E-3,0
STARLINK-30527,2023-153S,2026-06-01T03:34:20.668512,15.27579054,.00010068,43.0035,87.0481,287.2813,72.7929,0,U,58007,999,15022,.55434962E-4,.1264E-4,0
STARLINK-30522,2023-153T,2026-06-01T10:55:03.431712,15.27575801,.00017084,43.0041,314.2830,270.6533,89.4123,0,U,58008,999,14770,.13198168E-3,.3371E-4,0
STARLINK-30486,2023-153U,2026-06-01T11:33:42.153696,15.27580450,.00019599,43.0031,313.6290,264.9398,95.1230,0,U,58009,999,14761,.1397012E-3,.3584E-4,0
STARLINK-30520,2023-153V,2026-06-03T20:18:09.273888,15.27565214,.00018062,43.0052,300.4029,285.3163,74.7489,0,U,58010,999,14797,-.27627938E-4,-.1022E-4,0
STARLINK-30497,2023-153W,2026-06-01T17:37:22.249056,15.27578021,.00023545,43.0057,312.0801,268.0327,92.0255,0,U,58011,999,14775,.7602282E-4,.183E-4,0
STARLINK-30525,2023-153X,2026-06-01T21:02:21.246720,15.27571996,.00003118,43.0014,311.4263,267.8724,92.2092,0,U,58012,999,14777,.3760976E-5,-.158E-5,0
THEOS-2 (T2V),2023-155A,2026-06-04T06:46:22.049760,14.81718706,.00014839,97.8878,226.4576,90.3898,269.7485,0,U,58016,999,14351,.14201045E-3,.1067E-4,0
FORMOSAT-7R (TRITON),2023-155B,2026-06-03T22:51:21.465792,14.91075295,.00025861,97.8349,236.4388,108.3015,251.8485,0,U,58017,999,14425,.17932906E-3,.172E-4,0
ANSER FOLLOWER 2,2023-155C,2026-06-04T07:13:32.989728,15.46048274,.00009796,97.5539,243.8748,167.9166,192.2107,0,U,58018,999,14696,.43347824E-3,.21116E-3,0
ANSER FOLLOWER 1,2023-155D,2026-06-04T05:37:17.446944,15.45681101,.00018526,97.5541,244.4441,126.0634,234.0787,0,U,58019,999,14695,.12567009E-2,.6094E-3,0
NESS,2023-155E,2026-06-04T01:21:28.111104,15.29740985,.00050544,97.5909,240.5620,234.8381,125.2386,0,U,58020,999,14648,.63517343E-3,.18251E-3,0
CSC-2,2023-155F,2026-06-04T02:44:20.864832,15.21559012,.00033837,97.5424,231.7486,280.8579,79.2276,0,U,58021,999,14619,.46047821E-3,.10315E-3,0
