STARLINK-30519          
1 57985U 23151X   26152.26951727 -.00000353  00000+0 -32832-5 0  9996
2 57985  43.0027 238.8520 0002279 263.8795  96.1797 15.27585904148312
YAOGAN-39 03A           
1 57986U 23152A   26154.82264145  .00007236  00000+0  29905-3 0  9993
2 57986  35.0019 356.5634 0003964  33.4853 326.6112 15.23286531148409
YAOGAN-39 03B           
1 57988U 23152C   26155.04413205  .00007378  00000+0  35574-3 0  9999
2 57988  34.9913  18.1421 0018422 112.2987 247.9681 15.17868712148198
YAOGAN-39 03C           
1 57990U 23152E   26155.04016838  .00006498  00000+0  31430-3 0  9992
2 57990  34.9914  18.0823 0009781  16.9963 343.1076 15.17894728148169
STARLINK-30537          
1 57991U 23153A   26152.75228186  .00000252  00000+0  18709-4 0  9997
2 57991  43.0074 312.2353 0002385 274.5121  85.5458 15.27574392147653
STARLINK-30534          
1 57992U 23153B   26152.47659504  .00002867  00000+0  11368-3 0  9996
2 57992  43.0047 313.6008 0002065 265.7803  94.2813 15.27584134147613
STARLINK-30536          
1 57993U 23153C   26152.75613213  .00000782  00000+0  37958-4 0  9993
2 57993  43.0073 312.2614 0002277 252.4815 107.5788 15.27576390147751
STARLINK-30538          
1 57994U 23153D   26152.76385213  .00000522  00000+0  28491-4 0  9995
2 57994  43.0022 312.3162 0000662 286.2743  73.8036 15.27573680147655
STARLINK-30517          
1 57995U 23153E   26152.77797649  .00003601  00000+0  14035-3 0  9996
2 57995  43.0052 312.4180 0002474 255.7581 104.2996 15.27577597147750
STARLINK-30523          
1 57997U 23153G   26154.52535738  .00013276  00000+0  48974-3 0  9990
2 57997  43.0087 302.3215 0002884 260.2308  99.8218 15.27668870148022
STARLINK-30531          
1 57998U 23153H   26152.74970829 -.00000050  00000+0  77335-5 0  9999
2 57998  43.0069 312.2107 0002175 261.9309  98.1296 15.27574978147757
STARLINK-30552          
1 57999U 23153J   26152.92031280  .00004111  00000+0  15884-3 0  9999
2 57999  43.0057 311.7751 0003812 289.0077  71.0361 15.27579087147777
STARLINK-30545          
1 58000U 23153K   26152.72787170  .00002679  00000+0  10687-3 0  9990
2 58000  43.0054 312.0485 0001212 269.2090  90.8623 15.27573061147757
STARLINK-30535          
1 58001U 23153L   26152.47016823  .00002776  00000+0  11037-3 0  9991
2 58001  43.0045 313.5492 0002251 265.7519  94.3076 15.27585286147712
STARLINK-30540          
1 58002U 23153M   26152.74199872  .00002573  00000+0  10305-3 0  9990
2 58002  43.0053 312.1370 0001942 264.3797  95.6833 15.27570510147653
STARLINK-30539          
1 58004U 23153P   26154.76641073  .00001650  00000+0  69484-4 0  9999
2 58004  43.0037 300.6862 0001460 260.2653  99.8034 15.27580749148055
STARLINK-30530          
1 58005U 23153Q   26152.87791494  .00001402  00000+0  60508-4 0  9996
2 58005  43.0091 311.4451 0001981 234.1755 125.8913 15.27566530147777
STARLINK-30526          
1 58006U 23153R   26151.74056110  .00039731  00000+0  13381-2 0  9992
2 58006  43.0041 292.3621 0003729 320.0627  39.9951 15.30094685147895
STARLINK-30527          
1 58007U 23153S   26152.14885033  .00001264  00000+0  55435-4 0  9990
2 58007  43.0035  87.0481 0001006 287.2813  72.7929 15.27579054150224
STARLINK-30522          
1 58008U 23153T   26152.45490083  .00003371  00000+0  13198-3 0  9992
2 58008  43.0041 314.2830 0001708 270.6533  89.4123 15.27575801147705
STARLINK-30486          
1 58009U 23153U   26152.48173789  .00003584  00000+0  13970-3 0  9991
2 58009  43.0031 313.6290 0001959 264.9398  95.1230 15.27580450147610
STARLINK-30520          
1 58010U 23153V   26154.84594067 -.00001022  00000+0 -27628-4 0  9994
2 58010  43.0052 300.4029 0001806 285.3163  74.7489 15.27565214147976
STARLINK-30497          
1 58011U 23153W   26152.73428529  .00001830  00000+0  76023-4 0  9998
2 58011  43.0057 312.0801 0002354 268.0327  92.0255 15.27578021147758
STARLINK-30525          
1 58012U 23153X   26152.87663480 -.00000158  00000+0  37610-5 0  9994
2 58012  43.0014 311.4263 0000311 267.8724  92.2092 15.27571996147773
THEOS-2 (T2V)           
1 58016U 23155A   26155.28219965  .00001067  00000+0  14201-3 0  9991
2 58016  97.8878 226.4576 0001483  90.3898 269.7485 14.81718706143512
FORMOSAT-7R (TRITON)    
1 58017U 23155B   26154.95233178  .00001720  00000+0  17933-3 0  9998
2 58017  97.8349 236.4388 0002586 108.3015 251.8485 14.91075295144258
ANSER FOLLOWER 2        
1 58018U 23155C   26155.30107627  .00021116  00000+0  43348-3 0  9998
2 58018  97.5539 243.8748 0000979 167.9166 192.2107 15.46048274146968
ANSER FOLLOWER 1        
1 58019U 23155D   26155.23422971  .00060940  00000+0  12567-2 0  9999
2 58019  97.5541 244.4441 0001852 126.0634 234.0787 15.45681101146955
NESS                    
1 58020U 23155E   26155.05657536  .00018251  00000+0  63517-3 0  9998
2 58020  97.5909 240.5620 0005054 234.8381 125.2386 15.29740985146488
CSC-2                   
1 58021U 23155F   26155.11413038  .00010315  00000+0  46048-3 0  9996
2 58021  97.5424 231.7486 0003383 280.8579  79.2276 15.21559012146191
